METEOSAT-10 (MSG-3)     
1 38552U 12035B   25151.15673387 -.00000013  00000+0  00000+0 0  9991
2 38552   3.7699  62.0750 0000459  14.7908 228.4834  1.00272345 47024
METOP-B                 
1 38771U 12049A   25151.80985642  .00000124  00000+0  76184-4 0  9994
2 38771  98.5773 206.2736 0001700  70.0452 290.0909 14.21499869659078
INSAT-3D                
1 39216U 13038B   25151.53944902 -.00000345  00000+0  00000+0 0  9997
2 39216   0.9408  87.7151 0000588 302.0193 183.2853  1.00267614 43253
FENGYUN 3C              
1 39260U 13052A   25151.88375364  .00000100  00000+0  71762-4 0  9996
2 39260  98.4539 139.3131 0015583  44.8296 315.4135 14.15624679604687
METEOR-M 2              
1 40069U 14037A   25151.82063405  .00000119  00000+0  73882-4 0  9998
2 40069  98.4673 137.1242 0006930  69.2483 290.9437 14.21295208565147
HIMAWARI-8              
1 40267U 14060A   25151.75581588 -.00000281  00000+0  00000+0 0  9991
2 40267   0.0122  41.2430 0000494 148.0787 112.9087  1.00273532 39049
FENGYUN 2G              
1 40367U 14090A   25151.50928089 -.00000308  00000+0  00000+0 0  9999
2 40367   4.6739  77.4572 0003672 147.9718 306.4928  1.00280800 38178
METEOSAT-11 (MSG-4)     
1 40732U 15034A   25151.30142315  .00000057  00000+0  00000+0 0  9992
2 40732   2.2474  72.3532 0001105 296.5916 357.8975  1.00275170  3385
ELEKTRO-L 2             
1 41105U 15074A   25151.15386681 -.00000123  00000+0  00000+0 0  9995
2 41105   5.7314  75.2340 0001492 224.5737 349.9576  1.00270561 34675
INSAT-3DR               
1 41752U 16054A   25151.74254853 -.00000082  00000+0  00000+0 0  9996
2 41752   0.1569  91.2130 0010438 181.0586 318.5290  1.00271890 31979
HIMAWARI-9              
1 41836U 16064A   25151.54162102 -.00000280  00000+0  00000+0 0  9993
2 41836   0.0413 123.0509 0001178 344.7401 117.2448  1.00270798 31388
GOES 16                 
1 41866U 16071A   25151.42215781 -.00000094  00000+0  00000+0 0  9996
2 41866   0.0464 258.3763 0001371 233.2716 167.9370  1.00124471 31277
FENGYUN 4A              
1 41882U 16077A   25150.96714580 -.00000363  00000+0  00000+0 0  9998
2 41882   1.3494  84.4059 0007646 170.1019 105.9676  1.00276569 31091
CYGFM05                 
1 41884U 16078A   25151.64516460  .00011517  00000+0  27695-3 0  9999
2 41884  34.9600 233.2711 0009799 165.7597 194.3400 15.40419909469701
