[
  {
    "OBJECT_NAME": "METEOSAT-10 (MSG-3)",
    "OBJECT_ID": "2012-035B",
    "EPOCH": "2025-05-31T03:45:41.806368",
    "MEAN_MOTION": 1.00272345,
    "ECCENTRICITY": 4.59e-05,
    "INCLINATION": 3.7699,
    "RA_OF_ASC_NODE": 62.075,
    "ARG_OF_PERICENTER": 14.7908,
    "MEAN_ANOMALY": 228.4834,
    "EPHEMERIS_TYPE": 0,
    "CLASSIFICATION_TYPE": "U",
    "NORAD_CAT_ID": 38552,
    "ELEMENT_SET_NO": 999,
    "REV_AT_EPOCH": 4702,
    "BSTAR": 0,
    "MEAN_MOTION_DOT": -1.3e-07,
    "MEAN_MOTION_DDOT": 0
  },
  {
    "OBJECT_NAME": "METOP-B",
    "OBJECT_ID": "2012-049A",
    "EPOCH": "2025-05-31T19:26:11.594688",
    "MEAN_MOTION": 14.21499869,
    "ECCENTRICITY": 0.00017,
    "INCLINATION": 98.5773,
    "RA_OF_ASC_NODE": 206.2736,
    "ARG_OF_PERICENTER": 70.0452,
    "MEAN_ANOMALY": 290.0909,
    "EPHEMERIS_TYPE": 0,
    "CLASSIFICATION_TYPE": "U",
    "NORAD_CAT_ID": 38771,
    "ELEMENT_SET_NO": 999,
    "REV_AT_EPOCH": 65907,
    "BSTAR": 7.6184e-05,
    "MEAN_MOTION_DOT": 1.24e-06,
    "MEAN_MOTION_DDOT": 0
  },
  {
    "OBJECT_NAME": "INSAT-3D",
    "OBJECT_ID": "2013-038B",
    "EPOCH": "2025-05-31T12:56:48.395328",
    "MEAN_MOTION": 1.00267614,
    "ECCENTRICITY": 5.88e-05,
    "INCLINATION": 0.9408,
    "RA_OF_ASC_NODE": 87.7151,
    "ARG_OF_PERICENTER": 302.0193,
    "MEAN_ANOMALY": 183.2853,
    "EPHEMERIS_TYPE": 0,
    "CLASSIFICATION_TYPE": "U",
    "NORAD_CAT_ID": 39216,
    "ELEMENT_SET_NO": 999,
    "REV_AT_EPOCH": 4325,
    "BSTAR": 0,
    "MEAN_MOTION_DOT": -3.45e-06,
    "MEAN_MOTION_DDOT": 0
  },
  {
    "OBJECT_NAME": "FENGYUN 3C",
    "OBJECT_ID": "2013-052A",
    "EPOCH": "2025-05-31T21:12:36.314496",
    "MEAN_MOTION": 14.15624679,
    "ECCENTRICITY": 0.0015583,
    "INCLINATION": 98.4539,
    "RA_OF_ASC_NODE": 139.3131,
    "ARG_OF_PERICENTER": 44.8296,
    "MEAN_ANOMALY": 315.4135,
    "EPHEMERIS_TYPE": 0,
    "CLASSIFICATION_TYPE": "U",
    "NORAD_CAT_ID": 39260,
    "ELEMENT_SET_NO": 999,
    "REV_AT_EPOCH": 60468,
    "BSTAR": 7.1762e-05,
    "MEAN_MOTION_DOT": 1e-06,
    "MEAN_MOTION_DDOT": 0
  },
  {
    "OBJECT_NAME": "METEOR-M 2",
    "OBJECT_ID": "2014-037A",
    "EPOCH": "2025-05-31T19:41:42.781920",
    "MEAN_MOTION": 14.21295208,
    "ECCENTRICITY": 0.000693,
    "INCLINATION": 98.4673,
    "RA_OF_ASC_NODE": 137.1242,
    "ARG_OF_PERICENTER": 69.2483,
    "MEAN_ANOMALY": 290.9437,
    "EPHEMERIS_TYPE": 0,
    "CLASSIFICATION_TYPE": "U",
    "NORAD_CAT_ID": 40069,
    "ELEMENT_SET_NO": 999,
    "REV_AT_EPOCH": 56514,
    "BSTAR": 7.3882e-05,
    "MEAN_MOTION_DOT": 1.19e-06,
    "MEAN_MOTION_DDOT": 0
  },
  {
    "OBJECT_NAME": "HIMAWARI-8",
    "OBJECT_ID": "2014-060A",
    "EPOCH": "2025-05-31T18:08:22.492032",
    "MEAN_MOTION": 1.00273532,
    "ECCENTRICITY": 4.94e-05,
    "INCLINATION": 0.0122,
    "RA_OF_ASC_NODE": 41.243,
    "ARG_OF_PERICENTER": 148.0787,
    "MEAN_ANOMALY": 112.9087,
    "EPHEMERIS_TYPE": 0,
    "CLASSIFICATION_TYPE": "U",
    "NORAD_CAT_ID": 40267,
    "ELEMENT_SET_NO": 999,
    "REV_AT_EPOCH": 3904,
    "BSTAR": 0,
    "MEAN_MOTION_DOT": -2.81e-06,
    "MEAN_MOTION_DDOT": 0
  },
  {
    "OBJECT_NAME": "FENGYUN 2G",
    "OBJECT_ID": "2014-090A",
    "EPOCH": "2025-05-31T12:13:21.868896",
    "MEAN_MOTION": 1.002808,
    "ECCENTRICITY": 0.0003672,
    "INCLINATION": 4.6739,
    "RA_OF_ASC_NODE": 77.4572,
    "ARG_OF_PERICENTER": 147.9718,
    "MEAN_ANOMALY": 306.4928,
    "EPHEMERIS_TYPE": 0,
    "CLASSIFICATION_TYPE": "U",
    "NORAD_CAT_ID": 40367,
    "ELEMENT_SET_NO": 999,
    "REV_AT_EPOCH": 3817,
    "BSTAR": 0,
    "MEAN_MOTION_DOT": -3.08e-06,
    "MEAN_MOTION_DDOT": 0
  },
  {
    "OBJECT_NAME": "METEOSAT-11 (MSG-4)",
    "OBJECT_ID": "2015-034A",
    "EPOCH": "2025-05-31T07:14:02.960160",
    "MEAN_MOTION": 1.0027517,
    "ECCENTRICITY": 0.0001105,
    "INCLINATION": 2.2474,
    "RA_OF_ASC_NODE": 72.3532,
    "ARG_OF_PERICENTER": 296.5916,
    "MEAN_ANOMALY": 357.8975,
    "EPHEMERIS_TYPE": 0,
    "CLASSIFICATION_TYPE": "U",
    "NORAD_CAT_ID": 40732,
    "ELEMENT_SET_NO": 999,
    "REV_AT_EPOCH": 338,
    "BSTAR": 0,
    "MEAN_MOTION_DOT": 5.7e-07,
    "MEAN_MOTION_DDOT": 0
  },
  {
    "OBJECT_NAME": "ELEKTRO-L 2",
    "OBJECT_ID": "2015-074A",
    "EPOCH": "2025-05-31T03:41:34.092384",
    "MEAN_MOTION": 1.00270561,
    "ECCENTRICITY": 0.0001492,
    "INCLINATION": 5.7314,
    "RA_OF_ASC_NODE": 75.234,
    "ARG_OF_PERICENTER": 224.5737,
    "MEAN_ANOMALY": 349.9576,
    "EPHEMERIS_TYPE": 0,
    "CLASSIFICATION_TYPE": "U",
    "NORAD_CAT_ID": 41105,
    "ELEMENT_SET_NO": 999,
    "REV_AT_EPOCH": 3467,
    "BSTAR": 0,
    "MEAN_MOTION_DOT": -1.23e-06,
    "MEAN_MOTION_DDOT": 0
  },
  {
    "OBJECT_NAME": "INSAT-3DR",
    "OBJECT_ID": "2016-054A",
    "EPOCH": "2025-05-31T17:49:16.192992",
    "MEAN_MOTION": 1.0027189,
    "ECCENTRICITY": 0.0010438,
    "INCLINATION": 0.1569,
    "RA_OF_ASC_NODE": 91.213,
    "ARG_OF_PERICENTER": 181.0586,
    "MEAN_ANOMALY": 318.529,
    "EPHEMERIS_TYPE": 0,
    "CLASSIFICATION_TYPE": "U",
    "NORAD_CAT_ID": 41752,
    "ELEMENT_SET_NO": 999,
    "REV_AT_EPOCH": 3197,
    "BSTAR": 0,
    "MEAN_MOTION_DOT": -8.2e-07,
    "MEAN_MOTION_DDOT": 0
  },
  {
    "OBJECT_NAME": "HIMAWARI-9",
    "OBJECT_ID": "2016-064A",
    "EPOCH": "2025-05-31T12:59:56.056128",
    "MEAN_MOTION": 1.00270798,
    "ECCENTRICITY": 0.0001178,
    "INCLINATION": 0.0413,
    "RA_OF_ASC_NODE": 123.0509,
    "ARG_OF_PERICENTER": 344.7401,
    "MEAN_ANOMALY": 117.2448,
    "EPHEMERIS_TYPE": 0,
    "CLASSIFICATION_TYPE": "U",
    "NORAD_CAT_ID": 41836,
    "ELEMENT_SET_NO": 999,
    "REV_AT_EPOCH": 3138,
    "BSTAR": 0,
    "MEAN_MOTION_DOT": -2.8e-06,
    "MEAN_MOTION_DDOT": 0
  },
  {
    "OBJECT_NAME": "GOES 16",
    "OBJECT_ID": "2016-071A",
    "EPOCH": "2025-05-31T10:07:54.434784",
    "MEAN_MOTION": 1.00124471,
    "ECCENTRICITY": 0.0001371,
    "INCLINATION": 0.0464,
    "RA_OF_ASC_NODE": 258.3763,
    "ARG_OF_PERICENTER": 233.2716,
    "MEAN_ANOMALY": 167.937,
    "EPHEMERIS_TYPE": 0,
    "CLASSIFICATION_TYPE": "U",
    "NORAD_CAT_ID": 41866,
    "ELEMENT_SET_NO": 999,
    "REV_AT_EPOCH": 3127,
    "BSTAR": 0,
    "MEAN_MOTION_DOT": -9.4e-07,
    "MEAN_MOTION_DDOT": 0
  },
  {
    "OBJECT_NAME": "FENGYUN 4A",
    "OBJECT_ID": "2016-077A",
    "EPOCH": "2025-05-30T23:12:41.397120",
    "MEAN_MOTION": 1.00276569,
    "ECCENTRICITY": 0.0007646,
    "INCLINATION": 1.3494,
    "RA_OF_ASC_NODE": 84.4059,
    "ARG_OF_PERICENTER": 170.1019,
    "MEAN_ANOMALY": 105.9676,
    "EPHEMERIS_TYPE": 0,
    "CLASSIFICATION_TYPE": "U",
    "NORAD_CAT_ID": 41882,
    "ELEMENT_SET_NO": 999,
    "REV_AT_EPOCH": 3109,
    "BSTAR": 0,
    "MEAN_MOTION_DOT": -3.63e-06,
    "MEAN_MOTION_DDOT": 0
  },
  {
    "OBJECT_NAME": "CYGFM05",
    "OBJECT_ID": "2016-078A",
    "EPOCH": "2025-05-31T15:29:02.221440",
    "MEAN_MOTION": 15.40419909,
    "ECCENTRICITY": 0.0009799,
    "INCLINATION": 34.96,
    "RA_OF_ASC_NODE": 233.2711,
    "ARG_OF_PERICENTER": 165.7597,
    "MEAN_ANOMALY": 194.34,
    "EPHEMERIS_TYPE": 0,
    "CLASSIFICATION_TYPE": "U",
    "NORAD_CAT_ID": 41884,
    "ELEMENT_SET_NO": 999,
    "REV_AT_EPOCH": 46970,
    "BSTAR": 0.00027695,
    "MEAN_MOTION_DOT": 0.00011517,
    "MEAN_MOTION_DDOT": 0
  }
]